NAVSTAR 77 (USA 289)    
1 43873U 18109A   24043.68407692  .00000011  00000+0  00000+0 0  9999
2 43873  55.2477 125.9878 0028852 193.8608 338.3694  2.00573690 37915
